{
    "links": {
        "self": "http://www.neowsapp.com/rest/v1/neo/3878568?api_key=iIulBulltgU6a56xZRHN4H3l9WmuAYTsLGpBGhQ2"
    },
    "id": "3878568",
    "neo_reference_id": "3878568",
    "name": "(2019 TW1)",
    "designation": "2019 TW1",
    "nasa_jpl_url": "http://ssd.jpl.nasa.gov/sbdb.cgi?sstr=3878568",
    "absolute_magnitude_h": 27.8,
    "estimated_diameter": {
        "kilometers": {
            "estimated_diameter_min": 0.0073207399,
            "estimated_diameter_max": 0.016369672
        },
        "meters": {
            "estimated_diameter_min": 7.3207398935,
            "estimated_diameter_max": 16.3696720474
        },
        "miles": {
            "estimated_diameter_min": 0.0045488955,
            "estimated_diameter_max": 0.0101716395
        },
        "feet": {
            "estimated_diameter_min": 24.0181762721,
            "estimated_diameter_max": 53.70627484
        }
    },
    "is_potentially_hazardous_asteroid": false,
    "close_approach_data": [
        {
            "close_approach_date": "2019-10-08",
            "close_approach_date_full": "2019-Oct-08 01:20",
            "epoch_date_close_approach": 1570497600000,
            "relative_velocity": {
                "kilometers_per_second": "12.3383709956",
                "kilometers_per_hour": "44418.1355842907",
                "miles_per_hour": "27599.7020801388"
            },
            "miss_distance": {
                "astronomical": "0.0056590526",
                "lunar": "2.2013714614",
                "kilometers": "846582.215177962",
                "miles": "526041.7956293956"
            },
            "orbiting_body": "Moon"
        },
        {
            "close_approach_date": "2019-10-08",
            "close_approach_date_full": "2019-Oct-08 07:09",
            "epoch_date_close_approach": 1570518540000,
            "relative_velocity": {
                "kilometers_per_second": "11.7014804575",
                "kilometers_per_hour": "42125.3296471289",
                "miles_per_hour": "26175.0416354618"
            },
            "miss_distance": {
                "astronomical": "0.0037824885",
                "lunar": "1.4713880265",
                "kilometers": "565852.222899495",
                "miles": "351604.267203231"
            },
            "orbiting_body": "Earth"
        }
    ],
    "orbital_data": {
        "orbit_id": "1",
        "orbit_determination_date": "2019-10-05 19:42:05",
        "first_observation_date": "2019-10-05",
        "last_observation_date": "2019-10-05",
        "data_arc_in_days": null,
        "observations_used": 15,
        "orbit_uncertainty": "7",
        "minimum_orbit_intersection": "4.29827E-5",
        "jupiter_tisserand_invariant": "3.871",
        "epoch_osculation": "2459000.5",
        "eccentricity": ".5144564868666961",
        "semi_major_axis": "1.81422982958456",
        "inclination": "8.091213372465013",
        "ascending_node_longitude": "14.98171905306418",
        "orbital_period": "892.5588939145881",
        "perihelion_distance": ".8808875250877226",
        "perihelion_argument": "49.22244852492179",
        "aphelion_distance": "2.747572134081398",
        "perihelion_time": "2458801.671595748699",
        "mean_anomaly": "80.19440063673611",
        "mean_motion": ".4033347294553424",
        "equinox": "J2000",
        "orbit_class": {
            "orbit_class_type": "APO",
            "orbit_class_description": "Near-Earth asteroid orbits which cross the Earth’s orbit similar to that of 1862 Apollo",
            "orbit_class_range": "a (semi-major axis) > 1.0 AU; q (perihelion) < 1.017 AU"
        }
    },
    "is_sentry_object": false
}